COSMO-SKYMED 1          
1 31598U 07023A   17346.46887855 -.00000003  00000-0  62419-5 0  9991
2 31598  97.8875 167.6297 0001660  84.8279 275.3149 14.82158219568855
